{
    "links": {
        "self": "http://www.neowsapp.com/rest/v1/neo/54049346?api_key=iIulBulltgU6a56xZRHN4H3l9WmuAYTsLGpBGhQ2"
    },
    "id": "54049346",
    "neo_reference_id": "54049346",
    "name": "(2020 OD3)",
    "designation": "2020 OD3",
    "nasa_jpl_url": "http://ssd.jpl.nasa.gov/sbdb.cgi?sstr=54049346",
    "absolute_magnitude_h": 23.854,
    "estimated_diameter": {
        "kilometers": {
            "estimated_diameter_min": 0.0450562431,
            "estimated_diameter_max": 0.1007488224
        },
        "meters": {
            "estimated_diameter_min": 45.0562431257,
            "estimated_diameter_max": 100.7488224398
        },
        "miles": {
            "estimated_diameter_min": 0.0279966428,
            "estimated_diameter_max": 0.0626023965
        },
        "feet": {
            "estimated_diameter_min": 147.8223246965,
            "estimated_diameter_max": 330.5407666135
        }
    },
    "is_potentially_hazardous_asteroid": false,
    "close_approach_data": [
        {
            "close_approach_date": "2020-07-13",
            "close_approach_date_full": "2020-Jul-13 12:08",
            "epoch_date_close_approach": 1594642080000,
            "relative_velocity": {
                "kilometers_per_second": "22.0566523696",
                "kilometers_per_hour": "79403.9485307162",
                "miles_per_hour": "49338.5256856553"
            },
            "miss_distance": {
                "astronomical": "0.0845216626",
                "lunar": "32.8789267514",
                "kilometers": "12644260.693818662",
                "miles": "7856779.2714430556"
            },
            "orbiting_body": "Earth"
        }
    ],
    "orbital_data": {
        "orbit_id": "2",
        "orbit_determination_date": "2020-07-28 06:42:12",
        "first_observation_date": "2020-07-22",
        "last_observation_date": "2020-07-27",
        "data_arc_in_days": 5,
        "observations_used": 15,
        "orbit_uncertainty": "9",
        "minimum_orbit_intersection": ".0475156",
        "jupiter_tisserand_invariant": "3.736",
        "epoch_osculation": "2459053.5",
        "eccentricity": ".6889870891918871",
        "semi_major_axis": "1.760470597267897",
        "inclination": "22.26236900750439",
        "ascending_node_longitude": "120.2655000606907",
        "orbital_period": "853.1818164746138",
        "perihelion_distance": ".5475290848483856",
        "perihelion_argument": "74.63463147738314",
        "aphelion_distance": "2.973412109687408",
        "perihelion_time": "2458991.723220389185",
        "mean_anomaly": "26.06670727206612",
        "mean_motion": ".4219499209295581",
        "equinox": "J2000",
        "orbit_class": {
            "orbit_class_type": "APO",
            "orbit_class_description": "Near-Earth asteroid orbits which cross the Earth’s orbit similar to that of 1862 Apollo",
            "orbit_class_range": "a (semi-major axis) > 1.0 AU; q (perihelion) < 1.017 AU"
        }
    },
    "is_sentry_object": false
}